$$SOE
2460154.500000000, A.D. 2023-Jul-29 00:00:00.0000, -1.147412694412825E+08, -4.007279428627704E+08, 1.190242471011528E+07,
2460161.500000000, A.D. 2023-Aug-05 00:00:00.0000, -1.054158246585347E+08, -4.038003317533900E+08, 1.144133005694836E+07,
2460168.500000000, A.D. 2023-Aug-12 00:00:00.0000, -9.602010633480865E+07, -4.066033479207163E+08, 1.097260396181798E+07,
2460175.500000000, A.D. 2023-Aug-19 00:00:00.0000, -8.656058755968225E+07, -4.091359811086739E+08, 1.049658241221124E+07,
2460182.500000000, A.D. 2023-Aug-26 00:00:00.0000, -7.704372323031214E+07, -4.113973154328406E+08, 1.001360173899573E+07,
2460189.500000000, A.D. 2023-Sep-02 00:00:00.0000, -6.747595233300015E+07, -4.133865274750658E+08, 9.523998713401496E+06,
2460196.500000000, A.D. 2023-Sep-09 00:00:00.0000, -5.786370025499617E+07, -4.151028847213182E+08, 9.028110638228416E+06,
2460203.500000000, A.D. 2023-Sep-16 00:00:00.0000, -4.821338095241578E+07, -4.165457443979551E+08, 8.526275412865758E+06,
2460210.500000000, A.D. 2023-Sep-23 00:00:00.0000, -3.853139855284847E+07, -4.177145524171134E+08, 8.018831557194203E+06,
2460217.500000000, A.D. 2023-Sep-30 00:00:00.0000, -2.882414872764245E+07, -4.186088412379994E+08, 7.506118322663993E+06,
2460224.500000000, A.D. 2023-Oct-07 00:00:00.0000, -1.909802218304145E+07, -4.192282271838056E+08, 6.988476061854631E+06,
2460231.500000000, A.D. 2023-Oct-14 00:00:00.0000, -9.359409224944534E+06, -4.195724105246552E+08, 6.466246490082115E+06,
2460238.500000000, A.D. 2023-Oct-21 00:00:00.0000, 3.852978366362788E+05, -4.196411767236584E+08, 5.939772673774689E+06,
2460245.500000000, A.D. 2023-Oct-28 00:00:00.0000, 1.012970302326950E+07, -4.194343965869942E+08, 5.409399061077863E+06,
2460252.500000000, A.D. 2023-Nov-04 00:00:00.0000, 1.986740451768007E+07, -4.189520260889668E+08, 4.875471606513530E+06,
2460259.500000000, A.D. 2023-Nov-11 00:00:00.0000, 2.959199216858603E+07, -4.181941064723671E+08, 4.338337924470991E+06,
2460266.500000000, A.D. 2023-Nov-18 00:00:00.0000, 3.929704489414740E+07, -4.171607646890522E+08, 3.798347446173757E+06,
2460273.500000000, A.D. 2023-Nov-25 00:00:00.0000, 4.897612806103715E+07, -4.158522141588613E+08, 3.255851575214088E+06,
2460280.500000000, A.D. 2023-Dec-02 00:00:00.0000, 5.862279087225149E+07, -4.142687558593360E+08, 2.711203837994516E+06,
2460287.500000000, A.D. 2023-Dec-09 00:00:00.0000, 6.823056384696147E+07, -4.124107798078409E+08, 2.164760016978264E+06,
2460294.500000000, A.D. 2023-Dec-16 00:00:00.0000, 7.779295668528479E+07, -4.102787669275841E+08, 1.616878241309345E+06,
2460301.500000000, A.D. 2023-Dec-23 00:00:00.0000, 8.730345687137417E+07, -4.078732906147583E+08, 1.067919058889389E+06,
2460308.500000000, A.D. 2023-Dec-30 00:00:00.0000, 9.675552767935847E+07, -4.051950169618404E+08, 5.182456983028054E+05,
2460315.500000000, A.D. 2024-Jan-06 00:00:00.0000, 1.061426038149613E+08, -4.022447060007759E+08, -3.177551028177142E+04,
2460322.500000000, A.D. 2024-Jan-13 00:00:00.0000, 1.154580878725925E+08, -3.990232157762561E+08, -5.817749945940673E+05,
2460329.500000000, A.D. 2024-Jan-20 00:00:00.0000, 1.246953488396485E+08, -3.955315061704568E+08, -1.131379940850258E+06,
2460336.500000000, A.D. 2024-Jan-27 00:00:00.0000, 1.338477206273813E+08, -3.917706418341421E+08, -1.680214196556360E+06,
2460343.500000000, A.D. 2024-Feb-03 00:00:00.0000, 1.429085002084184E+08, -3.877417951797199E+08, -2.227898114298135E+06,
2460350.500000000, A.D. 2024-Feb-10 00:00:00.0000, 1.518709456475378E+08, -3.834462497346876E+08, -2.774048386320382E+06,
2460357.500000000, A.D. 2024-Feb-17 00:00:00.0000, 1.607282741742024E+08, -3.788854038554403E+08, -3.318277882546246E+06,
2460364.500000000, A.D. 2024-Feb-24 00:00:00.0000, 1.694736603428864E+08, -3.740607747946748E+08, -3.860195494748384E+06,
2460371.500000000, A.D. 2024-Mar-02 00:00:00.0000, 1.781002343211291E+08, -3.689740031625274E+08, -4.399405992903441E+06,
2460378.500000000, A.D. 2024-Mar-09 00:00:00.0000, 1.866010804556938E+08, -3.636268578515433E+08, -4.935509912285194E+06,
2460385.500000000, A.D. 2024-Mar-16 00:00:00.0000, 1.949692365248950E+08, -3.580212412353644E+08, -5.468103492059052E+06,
2460392.500000000, A.D. 2024-Mar-23 00:00:00.0000, 2.031976935878497E+08, -3.521591935388874E+08, -5.996778565919206E+06,
2460399.500000000, A.D. 2024-Mar-30 00:00:00.0000, 2.112793942062218E+08, -3.460428964128960E+08, -6.521122202275217E+06,
2460406.500000000, A.D. 2024-Apr-06 00:00:00.0000, 2.192072293143979E+08, -3.396746790869370E+08, -7.040716393786326E+06,
2460413.500000000, A.D. 2024-Apr-13 00:00:00.0000, 2.269740373125881E+08, -3.330570262730111E+08, -7.555138054694161E+06,
2460420.500000000, A.D. 2024-Apr-20 00:00:00.0000, 2.345726044551837E+08, -3.261925851560372E+08, -8.063959020807132E+06,
2460427.500000000, A.D. 2024-Apr-27 00:00:00.0000, 2.419956650412119E+08, -3.190841720448733E+08, -8.566745959821343E+06,
2460434.500000000, A.D. 2024-May-04 00:00:00.0000, 2.492359015193508E+08, -3.117347793972353E+08, -9.063060258631095E+06,
2460441.500000000, A.D. 2024-May-11 00:00:00.0000, 2.562859447725826E+08, -3.041475833282579E+08, -9.552457919065326E+06,
2460448.500000000, A.D. 2024-May-18 00:00:00.0000, 2.631383746938458E+08, -2.963259515878248E+08, -1.003448946918483E+07,
2460455.500000000, A.D. 2024-May-25 00:00:00.0000, 2.697857211091511E+08, -2.882734520194334E+08, -1.050869989452346E+07,
2460462.500000000, A.D. 2024-Jun-01 00:00:00.0000, 2.762204651421671E+08, -2.799938615618491E+08, -1.097462860118051E+07,
2460469.500000000, A.D. 2024-Jun-08 00:00:00.0000, 2.824350413045714E+08, -2.714911758183233E+08, -1.143180943709825E+07,
2460476.500000000, A.D. 2024-Jun-15 00:00:00.0000, 2.884218407547305E+08, -2.627696186499558E+08, -1.187977076548997E+07,
2460483.500000000, A.D. 2024-Jun-22 00:00:00.0000, 2.941732147660154E+08, -2.538336506207920E+08, -1.231803540413995E+07,
2460490.500000000, A.D. 2024-Jun-29 00:00:00.0000, 2.996814763301615E+08, -2.446879781159906E+08, -1.274612038710876E+07,
2460497.500000000, A.D. 2024-Jul-06 00:00:00.0000, 3.049389025893824E+08, -2.353375655987439E+08, -1.316353699614817E+07,
2460504.500000000, A.D. 2024-Jul-13 00:00:00.0000, 3.099377401009666E+08, -2.257876481728792E+08, -1.356979101280536E+07,
2460511.500000000, A.D. 2024-Jul-20 00:00:00.0000, 3.146702110084623E+08, -2.160437432922497E+08, -1.396438291842796E+07,
2460518.500000000, A.D. 2024-Jul-27 00:00:00.0000, 3.191285195264006E+08, -2.061116625629613E+08, -1.434680806390014E+07,
2460525.500000000, A.D. 2024-Aug-03 00:00:00.0000, 3.233048590776003E+08, -1.959975239952148E+08, -1.471655686875743E+07,
2460532.500000000, A.D. 2024-Aug-10 00:00:00.0000, 3.271914203183490E+08, -1.857077646857979E+08, -1.507311506956795E+07,
2460539.500000000, A.D. 2024-Aug-17 00:00:00.0000, 3.307804001714715E+08, -1.752491538803057E+08, -1.541596402474697E+07,
2460546.500000000, A.D. 2024-Aug-24 00:00:00.0000, 3.340640119701099E+08, -1.646288064014883E+08, -1.574458108502808E+07,
2460553.500000000, A.D. 2024-Aug-31 00:00:00.0000, 3.370344969038919E+08, -1.538541964607364E+08, -1.605844005029422E+07,
2460560.500000000, A.D. 2024-Sep-07 00:00:00.0000, 3.396841372108806E+08, -1.429331716701553E+08, -1.635701174117285E+07,
2460567.500000000, A.D. 2024-Sep-14 00:00:00.0000, 3.420052712852621E+08, -1.318739661916717E+08, -1.663976461706518E+07,
2460574.500000000, A.D. 2024-Sep-21 00:00:00.0000, 3.439903087642778E+08, -1.206852125363370E+08, -1.690616522642384E+07,
2460581.500000000, A.D. 2024-Sep-28 00:00:00.0000, 3.456317451983575E+08, -1.093759551588132E+08, -1.715567871470730E+07,
2460588.500000000, A.D. 2024-Oct-05 00:00:00.0000, 3.469221800625568E+08, -9.795566574730706E+07, -1.738776973320711E+07,
2460595.500000000, A.D. 2024-Oct-12 00:00:00.0000, 3.478543378393027E+08, -8.643425711655249E+07, -1.760190347889630E+07,
2460602.500000000, A.D. 2024-Oct-19 00:00:00.0000, 3.484210905122067E+08, -7.482209584971632E+07, -1.779754673365301E+07,
2460609.500000000, A.D. 2024-Oct-26 00:00:00.0000, 3.486154815251170E+08, -6.313001435012785E+07, -1.797416897218492E+07,
2460616.500000000, A.D. 2024-Nov-02 00:00:00.0000, 3.484307515448000E+08, -5.136932229285613E+07, -1.813124358105931E+07,
2460623.500000000, A.D. 2024-Nov-09 00:00:00.0000, 3.478603661984472E+08, -3.955181727842545E+07, -1.826824920250615E+07,
2460630.500000000, A.D. 2024-Nov-16 00:00:00.0000, 3.468980458781495E+08, -2.768979449282164E+07, -1.838467121162035E+07,
2460637.500000000, A.D. 2024-Nov-23 00:00:00.0000, 3.455377977135652E+08, -1.579605521024154E+07, -1.848000334131343E+07,
2460644.500000000, A.D. 2024-Nov-30 00:00:00.0000, 3.437739499566620E+08, -3.883913950240366E+06, -1.855374948309112E+07,
2460651.500000000, A.D. 2024-Dec-07 00:00:00.0000, 3.416011892064104E+08, 8.032796384219392E+06, -1.860542567218260E+07,
2460658.500000000, A.D. 2024-Dec-14 00:00:00.0000, 3.390145997696449E+08, 1.993972289463735E+07, -1.863456209653481E+07,
2460665.500000000, A.D. 2024-Dec-21 00:00:00.0000, 3.360097028134234E+08, 3.182199366664317E+07, -1.864070502027238E+07,
2460672.500000000, A.D. 2024-Dec-28 00:00:00.0000, 3.325824972317146E+08, 4.366421869265366E+07, -1.862341904669806E+07,
2460679.500000000, A.D. 2025-Jan-04 00:00:00.0000, 3.287295047358544E+08, 5.545049344701891E+07, -1.858228976485536E+07,
2460686.500000000, A.D. 2025-Jan-11 00:00:00.0000, 3.244478172225149E+08, 6.716440711964816E+07, -1.851692647478599E+07,
2460693.500000000, A.D. 2025-Jan-18 00:00:00.0000, 3.197351453326653E+08, 7.878905494338703E+07, -1.842696497809204E+07,
2460700.500000000, A.D. 2025-Jan-25 00:00:00.0000, 3.145898682229947E+08, 9.030705450112984E+07, -1.831207048789156E+07,
2460707.500000000, A.D. 2025-Feb-01 00:00:00.0000, 3.090110844619377E+08, 1.017005663458322E+08, -1.817194066797990E+07,
2460714.500000000, A.D. 2025-Feb-08 00:00:00.0000, 3.029986637737623E+08, 1.129513193124426E+08, -1.800630879168500E+07,
2460721.500000000, A.D. 2025-Feb-15 00:00:00.0000, 2.965532992643191E+08, 1.240406408490070E+08, -1.781494700796876E+07,
$$EOE